#aV2007  6 27  0  0   .00000000      96 DD+AD WGS84 FIT  NGA
## 1433 259200.00000000   900.00000000 54278  .0000000000000
+   30     1  2  3  4  5  6  7  8  9 10 11 12 13 14 16 17 18
+         19 20 21 22 23 24 25 26 27 28 29 30 31  0  0  0  0
+          0  0  0  0  0  0  0  0  0  0  0  0  0  0  0  0  0
+          0  0  0  0  0  0  0  0  0  0  0  0  0  0  0  0  0
+          0  0  0  0  0  0  0  0  0  0  0  0  0  0  0  0  0
++         0  0  0  0  0  0  0  0  0  0  0  0  0  0  0  0  0
++         0  0  0  0  0  0  0  0  0  0  0  0  0  0  0  0  0
++         0  0  0  0  0  0  0  0  0  0  0  0  0  0  0  0  0
++         0  0  0  0  0  0  0  0  0  0  0  0  0  0  0  0  0
++         0  0  0  0  0  0  0  0  0  0  0  0  0  0  0  0  0
%c cc cc ccc ccc cccc cccc cccc cccc ccccc ccccc ccccc ccccc
%c cc cc ccc ccc cccc cccc cccc cccc ccccc ccccc ccccc ccccc
%f  0.0000000  0.000000000  0.00000000000  0.000000000000000
%f  0.0000000  0.000000000  0.00000000000  0.000000000000000
%i    0    0    0    0      0      0      0      0         0
%i    0    0    0    0      0      0      0      0         0
/*      NGA, ST. LOUIS,MO.                                  
/*   EPHEMERIS COMPUTED FROM  3 DAYS OF DATA                
/* CCCCCCCCCCCCCCCCCCCCCCCCCCCCCCCCCCCCCCCCCCCCCCCCCCCCCCCCC
/* CCCCCCCCCCCCCCCCCCCCCCCCCCCCCCCCCCCCCCCCCCCCCCCCCCCCCCCCC
*  2007  6 27 11 30   .00000000                                                 
P  1 -14047.144055  15829.622212 -15794.842571    136.546444                    
V  1   2948.870664 -20245.199266 -22682.246825       .021973                    
P  2  21910.616155 -13223.805057   6299.317420    117.307251                    
V  2   9016.344382    214.800771 -30227.901826       .028357                    
P  3 -10567.363344  20780.857241  12197.317567     78.333973                    
V  3  -2457.648686 -16225.427181  25422.077482       .054835                    
P  4  25734.182853  -5804.423983  -4507.048779      8.574830                    
V  4  -4278.884296   4638.380700 -30500.849129      -.011519                    
P  5 -11607.133585 -19939.570602 -13534.392892    107.737778                    
V  5  15268.468670   7406.638717 -24289.950824       .495980                    
P  6  -8610.162971 -20282.505819  14995.410362    223.992522                    
V  6   4975.067543 -18317.281254 -22242.726559       .082765                    
P  7 -10972.128384 -17360.365511  17160.150126    234.610417                    
V  7   4284.964486 -20904.857486 -18850.641696      -.194162                    
P  8  23130.620711   1869.899024  13204.342851   -112.635863                    
V  8 -15476.937647   6586.910095  25522.807575      -.015346                    
P  9   4476.708178 -17107.189940 -20355.658881     76.263870                    
V  9  23062.977429  -8543.128113  12843.609860       .015688                    
P 10  11793.879923  -9524.935364  21712.126683    103.909868                    
V 10  20958.222118  18265.058979  -3044.328111       .004692                    
P 11   -965.429184  18402.973337 -19150.488161     19.278940                    
V 11 -22132.886182  10619.514083  11683.998879       .008533                    
P 12  -6242.186221 -19891.567262 -16386.487958    -47.867814                    
V 12  17382.530823  11888.159761 -20854.895235      -.010065                    
P 13   7025.107107  19456.467404  16571.592004    185.071490                    
V 13  -5381.050352  20503.374152 -21616.271389       .032342                    
P 14 -14750.305945     23.558133 -21999.746096     27.019685                    
V 14   4946.413482 -27622.753037  -3415.247649       .019423                    
P 16 -16379.097168   4770.839517  20479.387366    158.598869                    
V 16 -19108.325600 -17309.659281 -11142.466970       .027213                    
P 17  14993.894944   2733.561098 -21733.472592     63.198949                    
V 17  -4671.447414  27249.192501     74.624628      -.012697                    
P 18 -20133.777257 -17605.256234   -370.750346   -246.159888                    
V 18   1373.107719  -2495.384332  31348.459416       .011379                    
P 19  -7694.184811  25240.763305   2479.528255     46.164772                    
V 19  -2247.694486  -3645.502994  31544.384401       .030931                    
P 20   8107.339369  20327.171259 -15182.797962    -26.114397                    
V 20 -16253.314796 -10254.897642 -22533.462959      -.004498                    
P 21 -17177.520345  -8605.297577  18699.375606     78.260950                    
V 21  21661.965972  -8835.827822  15358.465548       .002825                    
P 22 -22134.040610  -8868.440258 -11586.005547    188.349998                    
V 22  -9296.736801 -12013.999953  26566.202508       .017891                    
P 23   1223.500491  25209.472018   7831.552980    177.096388                    
V 23  -4163.425040   9550.645317 -29976.777705       .030758                    
P 24  -3671.263821 -15000.168641  21820.376839     10.715221                    
V 24  25947.889996  -8261.910860  -1041.323549       .029434                    
P 25   9429.692432  12422.554793  21854.730284    338.465203                    
V 25 -24019.565614  12113.760515   3688.502446       .196416                    
P 26   8478.589825 -24169.568559   5336.019746   -274.037103                    
V 26    755.537119   7750.293901  31849.232439      -.217251                    
P 27  16636.739111   7709.106291  19942.810223    119.179267                    
V 27 -21401.046981  10571.511725  14008.398173       .022660                    
P 28  22412.284753  11959.322773  -7995.357466     -1.836574                    
V 28   6408.086306   8679.211539  29347.422507      -.008012                    
P 29  10639.990293 -21826.270543  10498.620719      4.074171                    
V 29   -252.297977  13261.309819  28733.951669       .002581                    
P 30 -16002.161816 -19705.762682  -8321.321623     37.830161                    
V 30   9800.414330   3851.717671 -28953.366705       .010947                    
P 31 -25305.203044   7737.231561  -2524.984569     17.079152                    
V 31   2261.090108  -3724.097178 -31546.857324      -.008129                    
EOF
